[{"OBJECT_NAME":"STARLINK-31426","OBJECT_ID":"2024-049U","EPOCH":"2026-02-04T05:04:19.420032","MEAN_MOTION":15.27586543,"ECCENTRICITY":0.0001271,"INCLINATION":43.0029,"RA_OF_ASC_NODE":332.7983,"ARG_OF_PERICENTER":240.9399,"MEAN_ANOMALY":119.1325,"EPHEMERIS_TYPE":0,"CLASSIFICATION_TYPE":"U","NORAD_CAT_ID":59249,"ELEMENT_SET_NO":999,"REV_AT_EPOCH":10727,"BSTAR":-4.5824e-5,"MEAN_MOTION_DOT":-1.523e-5,"MEAN_MOTION_DDOT":0},{"OBJECT_NAME":"STARLINK-31407","OBJECT_ID":"2024-049V","EPOCH":"2026-02-04T03:09:49.071744","MEAN_MOTION":15.27599331,"ECCENTRICITY":0.0001605,"INCLINATION":43.0004,"RA_OF_ASC_NODE":321.8241,"ARG_OF_PERICENTER":262.2848,"MEAN_ANOMALY":97.7821,"EPHEMERIS_TYPE":0,"CLASSIFICATION_TYPE":"U","NORAD_CAT_ID":59250,"ELEMENT_SET_NO":999,"REV_AT_EPOCH":10739,"BSTAR":8.6186904e-5,"MEAN_MOTION_DOT":2.112e-5,"MEAN_MOTION_DDOT":0},{"OBJECT_NAME":"STARLINK-31393","OBJECT_ID":"2024-049X","EPOCH":"2026-02-04T11:16:08.588640","MEAN_MOTION":15.27574713,"ECCENTRICITY":0.0001495,"INCLINATION":43.0059,"RA_OF_ASC_NODE":316.5817,"ARG_OF_PERICENTER":39.9661,"MEAN_ANOMALY":320.1301,"EPHEMERIS_TYPE":0,"CLASSIFICATION_TYPE":"U","NORAD_CAT_ID":59252,"ELEMENT_SET_NO":999,"REV_AT_EPOCH":10749,"BSTAR":-1.5264e-5,"MEAN_MOTION_DOT":-6.82e-6,"MEAN_MOTION_DDOT":0},{"OBJECT_NAME":"STARLINK-31425","OBJECT_ID":"2024-049Y","EPOCH":"2026-02-04T05:55:56.103168","MEAN_MOTION":15.27574278,"ECCENTRICITY":2.23e-5,"INCLINATION":42.9985,"RA_OF_ASC_NODE":332.2137,"ARG_OF_PERICENTER":219.2342,"MEAN_ANOMALY":140.8493,"EPHEMERIS_TYPE":0,"CLASSIFICATION_TYPE":"U","NORAD_CAT_ID":59253,"ELEMENT_SET_NO":999,"REV_AT_EPOCH":10728,"BSTAR":-1.1058e-5,"MEAN_MOTION_DOT":-5.66e-6,"MEAN_MOTION_DDOT":0},{"OBJECT_NAME":"STARLINK-31659","OBJECT_ID":"2024-050A","EPOCH":"2026-02-04T03:31:11.890560","MEAN_MOTION":15.30196174,"ECCENTRICITY":0.0001264,"INCLINATION":53.161,"RA_OF_ASC_NODE":334.6247,"ARG_OF_PERICENTER":90.7332,"MEAN_ANOMALY":269.3814,"EPHEMERIS_TYPE":0,"CLASSIFICATION_TYPE":"U","NORAD_CAT_ID":59254,"ELEMENT_SET_NO":999,"REV_AT_EPOCH":10659,"BSTAR":-6.2131014e-5,"MEAN_MOTION_DOT":-2.199e-5,"MEAN_MOTION_DDOT":0},{"OBJECT_NAME":"STARLINK-31629","OBJECT_ID":"2024-050B","EPOCH":"2026-02-04T05:16:39.312480","MEAN_MOTION":15.30185123,"ECCENTRICITY":0.0001118,"INCLINATION":53.1613,"RA_OF_ASC_NODE":336.4965,"ARG_OF_PERICENTER":95.0545,"MEAN_ANOMALY":265.0584,"EPHEMERIS_TYPE":0,"CLASSIFICATION_TYPE":"U","NORAD_CAT_ID":59255,"ELEMENT_SET_NO":999,"REV_AT_EPOCH":10542,"BSTAR":2.151e-5,"MEAN_MOTION_DOT":2.78e-6,"MEAN_MOTION_DDOT":0},{"OBJECT_NAME":"STARLINK-31652","OBJECT_ID":"2024-050C","EPOCH":"2026-02-04T04:58:25.573152","MEAN_MOTION":15.30183784,"ECCENTRICITY":0.0001051,"INCLINATION":53.1616,"RA_OF_ASC_NODE":336.4211,"ARG_OF_PERICENTER":95.8795,"MEAN_ANOMALY":264.2325,"EPHEMERIS_TYPE":0,"CLASSIFICATION_TYPE":"U","NORAD_CAT_ID":59256,"ELEMENT_SET_NO":999,"REV_AT_EPOCH":10542,"BSTAR":8.5283e-5,"MEAN_MOTION_DOT":2.166e-5,"MEAN_MOTION_DDOT":0},{"OBJECT_NAME":"STARLINK-31655","OBJECT_ID":"2024-050D","EPOCH":"2026-02-04T12:37:50.774304","MEAN_MOTION":16.05292042,"ECCENTRICITY":0.00093,"INCLINATION":53.1262,"RA_OF_ASC_NODE":274.2232,"ARG_OF_PERICENTER":159.1378,"MEAN_ANOMALY":201.0036,"EPHEMERIS_TYPE":0,"CLASSIFICATION_TYPE":"U","NORAD_CAT_ID":59257,"ELEMENT_SET_NO":999,"REV_AT_EPOCH":10631,"BSTAR":0.00070846,"MEAN_MOTION_DOT":0.00508889,"MEAN_MOTION_DDOT":0.0001333},{"OBJECT_NAME":"STARLINK-31637","OBJECT_ID":"2024-050E","EPOCH":"2026-02-04T06:23:20.275296","MEAN_MOTION":15.30177818,"ECCENTRICITY":0.000138,"INCLINATION":53.1606,"RA_OF_ASC_NODE":336.0804,"ARG_OF_PERICENTER":72.6241,"MEAN_ANOMALY":287.491,"EPHEMERIS_TYPE":0,"CLASSIFICATION_TYPE":"U","NORAD_CAT_ID":59258,"ELEMENT_SET_NO":999,"REV_AT_EPOCH":10543,"BSTAR":-0.00026563,"MEAN_MOTION_DOT":-8.212e-5,"MEAN_MOTION_DDOT":0},{"OBJECT_NAME":"STARLINK-31506","OBJECT_ID":"2024-050F","EPOCH":"2026-02-04T05:12:01.712736","MEAN_MOTION":15.30243383,"ECCENTRICITY":8.41e-5,"INCLINATION":53.1602,"RA_OF_ASC_NODE":336.4807,"ARG_OF_PERICENTER":91.6842,"MEAN_ANOMALY":268.4255,"EPHEMERIS_TYPE":0,"CLASSIFICATION_TYPE":"U","NORAD_CAT_ID":59259,"ELEMENT_SET_NO":999,"REV_AT_EPOCH":10542,"BSTAR":0.00024529,"MEAN_MOTION_DOT":6.922e-5,"MEAN_MOTION_DDOT":0},{"OBJECT_NAME":"STARLINK-31639","OBJECT_ID":"2024-050H","EPOCH":"2026-02-04T06:27:52.612416","MEAN_MOTION":15.3026889,"ECCENTRICITY":6.56e-5,"INCLINATION":53.1611,"RA_OF_ASC_NODE":336.0963,"ARG_OF_PERICENTER":115.4073,"MEAN_ANOMALY":244.6996,"EPHEMERIS_TYPE":0,"CLASSIFICATION_TYPE":"U","NORAD_CAT_ID":59261,"ELEMENT_SET_NO":999,"REV_AT_EPOCH":10543,"BSTAR":-0.00059705,"MEAN_MOTION_DOT":-0.00018037,"MEAN_MOTION_DDOT":0},{"OBJECT_NAME":"STARLINK-31598","OBJECT_ID":"2024-050K","EPOCH":"2026-02-04T01:21:35.570880","MEAN_MOTION":15.30196318,"ECCENTRICITY":0.00010067,"INCLINATION":53.1609,"RA_OF_ASC_NODE":337.5884,"ARG_OF_PERICENTER":111.0289,"MEAN_ANOMALY":249.082,"EPHEMERIS_TYPE":0,"CLASSIFICATION_TYPE":"U","NORAD_CAT_ID":59263,"ELEMENT_SET_NO":999,"REV_AT_EPOCH":10539,"BSTAR":1.811024e-5,"MEAN_MOTION_DOT":1.77e-6,"MEAN_MOTION_DDOT":0},{"OBJECT_NAME":"STARLINK-31645","OBJECT_ID":"2024-050L","EPOCH":"2026-02-04T05:27:17.082720","MEAN_MOTION":15.30209454,"ECCENTRICITY":7.62e-5,"INCLINATION":53.1624,"RA_OF_ASC_NODE":336.5438,"ARG_OF_PERICENTER":65.2019,"MEAN_ANOMALY":294.9061,"EPHEMERIS_TYPE":0,"CLASSIFICATION_TYPE":"U","NORAD_CAT_ID":59264,"ELEMENT_SET_NO":999,"REV_AT_EPOCH":10542,"BSTAR":0.0013572,"MEAN_MOTION_DOT":0.00040066,"MEAN_MOTION_DDOT":0},{"OBJECT_NAME":"STARLINK-31646","OBJECT_ID":"2024-050M","EPOCH":"2026-02-04T05:36:24.134688","MEAN_MOTION":15.30193847,"ECCENTRICITY":0.0001359,"INCLINATION":53.1614,"RA_OF_ASC_NODE":336.5797,"ARG_OF_PERICENTER":106.752,"MEAN_ANOMALY":253.363,"EPHEMERIS_TYPE":0,"CLASSIFICATION_TYPE":"U","NORAD_CAT_ID":59265,"ELEMENT_SET_NO":999,"REV_AT_EPOCH":10542,"BSTAR":1.1445e-5,"MEAN_MOTION_DOT":-2.0e-7,"MEAN_MOTION_DDOT":0},{"OBJECT_NAME":"STARLINK-31648","OBJECT_ID":"2024-050N","EPOCH":"2026-02-04T05:02:57.869664","MEAN_MOTION":15.30211408,"ECCENTRICITY":0.000112,"INCLINATION":53.1603,"RA_OF_ASC_NODE":336.4399,"ARG_OF_PERICENTER":99.595,"MEAN_ANOMALY":260.5178,"EPHEMERIS_TYPE":0,"CLASSIFICATION_TYPE":"U","NORAD_CAT_ID":59266,"ELEMENT_SET_NO":999,"REV_AT_EPOCH":10542,"BSTAR":0.00011058,"MEAN_MOTION_DOT":2.918e-5,"MEAN_MOTION_DDOT":0},{"OBJECT_NAME":"STARLINK-31579","OBJECT_ID":"2024-050P","EPOCH":"2026-02-04T05:22:43.615488","MEAN_MOTION":15.30197184,"ECCENTRICITY":0.0001281,"INCLINATION":53.1619,"RA_OF_ASC_NODE":336.5218,"ARG_OF_PERICENTER":96.732,"MEAN_ANOMALY":263.3826,"EPHEMERIS_TYPE":0,"CLASSIFICATION_TYPE":"U","NORAD_CAT_ID":59267,"ELEMENT_SET_NO":999,"REV_AT_EPOCH":10542,"BSTAR":-2.4505e-5,"MEAN_MOTION_DOT":-1.085e-5,"MEAN_MOTION_DDOT":0}]
