STARLINK-31426          
1 59249U 24049U   26035.21133588 -.00001523  00000+0 -45824-4 0  9994
2 59249  43.0029 332.7983 0001271 240.9399 119.1325 15.27586543107276
STARLINK-31407          
1 59250U 24049V   26035.13181796  .00002112  00000+0  86187-4 0  9991
2 59250  43.0004 321.8241 0001605 262.2848  97.7821 15.27599331107398
STARLINK-31393          
1 59252U 24049X   26035.46954385 -.00000682  00000+0 -15264-4 0  9991
2 59252  43.0059 316.5817 0001495  39.9661 320.1301 15.27574713107493
STARLINK-31425          
1 59253U 24049Y   26035.24717712 -.00000566  00000+0 -11058-4 0  9997
2 59253  42.9985 332.2137 0000223 219.2342 140.8493 15.27574278107289
STARLINK-31659          
1 59254U 24050A   26035.14666540 -.00002199  00000+0 -62131-4 0  9993
2 59254  53.1610 334.6247 0001264  90.7332 269.3814 15.30196174106590
STARLINK-31629          
1 59255U 24050B   26035.21989945  .00000278  00000+0  21510-4 0  9999
2 59255  53.1613 336.4965 0001118  95.0545 265.0584 15.30185123105423
STARLINK-31652          
1 59256U 24050C   26035.20724043  .00002166  00000+0  85283-4 0  9990
2 59256  53.1616 336.4211 0001051  95.8795 264.2325 15.30183784105427
STARLINK-31655          
1 59257U 24050D   26035.52628211  .00508889  13330-3  70846-3 0  9991
2 59257  53.1262 274.2232 0009300 159.1378 201.0036 16.05292042106311
STARLINK-31637          
1 59258U 24050E   26035.26620689 -.00008212  00000+0 -26563-3 0  9994
2 59258  53.1606 336.0804 0001380  72.6241 287.4910 15.30177818105435
STARLINK-31506          
1 59259U 24050F   26035.21668649  .00006922  00000+0  24529-3 0  9992
2 59259  53.1602 336.4807 0000841  91.6842 268.4255 15.30243383105429
STARLINK-31639          
1 59261U 24050H   26035.26935894 -.00018037  00000+0 -59705-3 0  9995
2 59261  53.1611 336.0963 0000656 115.4073 244.6996 15.30268890105435
STARLINK-31598          
1 59263U 24050K   26035.05666170  .00000177  00000+0  18110-4 0  9992
2 59263  53.1609 337.5884 0001006 111.0289 249.0820 15.30196318105398
STARLINK-31645          
1 59264U 24050L   26035.22728105  .00040066  00000+0  13572-2 0  9995
2 59264  53.1624 336.5438 0000762  65.2019 294.9061 15.30209454105425
STARLINK-31646          
1 59265U 24050M   26035.23361267 -.00000020  00000+0  11445-4 0  9995
2 59265  53.1614 336.5797 0001359 106.7520 253.3630 15.30193847105423
STARLINK-31648          
1 59266U 24050N   26035.21039201  .00002918  00000+0  11058-3 0  9990
2 59266  53.1603 336.4399 0001120  99.5950 260.5178 15.30211408105422
STARLINK-31579          
1 59267U 24050P   26035.22411592 -.00001085  00000+0 -24505-4 0  9997
2 59267  53.1619 336.5218 0001281  96.7320 263.3826 15.30197184105424
